14-May-2025 10:22:34
1 63677U 25085P   25134.16668981 -.01484001  00000+0 -15861-1 0  9990
2 63677  43.0007 287.1080 0001301 260.2087 268.7156 15.65849305  3117
